CCSDS_OMM_VERS = 2.0
CREATION_DATE  = 
ORIGINATOR     = 

OBJECT_NAME    = SL-3 R/B
OBJECT_ID      = 1982-079B
CENTER_NAME    = EARTH
REF_FRAME      = TEME
TIME_SYSTEM    = UTC
MEAN_ELEMENT_THEORY = SGP/SGP4

EPOCH          = 2026-01-29T11:34:25.289760
MEAN_MOTION    = 15.24241197
ECCENTRICITY   = .0024383
INCLINATION    = 81.1442
RA_OF_ASC_NODE = 239.3580
ARG_OF_PERICENTER = 300.5086
MEAN_ANOMALY   = 59.3740

EPHEMERIS_TYPE = 0
CLASSIFICATION_TYPE = U
NORAD_CAT_ID   = 13403
ELEMENT_SET_NO = 999
REV_AT_EPOCH   = 37172
BSTAR          = .31029E-3
MEAN_MOTION_DOT = .7657E-4
MEAN_MOTION_DDOT = 0

CCSDS_OMM_VERS = 2.0
CREATION_DATE  = 
ORIGINATOR     = 

OBJECT_NAME    = SL-14 R/B
OBJECT_ID      = 1982-092B
CENTER_NAME    = EARTH
REF_FRAME      = TEME
TIME_SYSTEM    = UTC
MEAN_ELEMENT_THEORY = SGP/SGP4

EPOCH          = 2026-01-29T11:18:47.352096
MEAN_MOTION    = 14.86619040
ECCENTRICITY   = .0021779
INCLINATION    = 82.5690
RA_OF_ASC_NODE = 178.0700
ARG_OF_PERICENTER = 72.6612
MEAN_ANOMALY   = 352.2658

EPHEMERIS_TYPE = 0
CLASSIFICATION_TYPE = U
NORAD_CAT_ID   = 13553
ELEMENT_SET_NO = 999
REV_AT_EPOCH   = 32310
BSTAR          = .9798E-4
MEAN_MOTION_DOT = .897E-5
MEAN_MOTION_DDOT = 0

CCSDS_OMM_VERS = 2.0
CREATION_DATE  = 
ORIGINATOR     = 

OBJECT_NAME    = SL-3 R/B
OBJECT_ID      = 1983-010B
CENTER_NAME    = EARTH
REF_FRAME      = TEME
TIME_SYSTEM    = UTC
MEAN_ELEMENT_THEORY = SGP/SGP4

EPOCH          = 2026-01-29T11:08:42.317088
MEAN_MOTION    = 15.44988127
ECCENTRICITY   = .0017072
INCLINATION    = 81.1021
RA_OF_ASC_NODE = 50.2932
ARG_OF_PERICENTER = 178.1528
MEAN_ANOMALY   = 181.9782

EPHEMERIS_TYPE = 0
CLASSIFICATION_TYPE = U
NORAD_CAT_ID   = 13819
ELEMENT_SET_NO = 999
REV_AT_EPOCH   = 35188
BSTAR          = .42951E-3
MEAN_MOTION_DOT = .20403E-3
MEAN_MOTION_DDOT = 0

CCSDS_OMM_VERS = 2.0
CREATION_DATE  = 
ORIGINATOR     = 

OBJECT_NAME    = SL-3 R/B
OBJECT_ID      = 1983-075B
CENTER_NAME    = EARTH
REF_FRAME      = TEME
TIME_SYSTEM    = UTC
MEAN_ELEMENT_THEORY = SGP/SGP4

EPOCH          = 2026-01-29T12:25:12.754272
MEAN_MOTION    = 15.37374504
ECCENTRICITY   = .0022664
INCLINATION    = 97.6122
RA_OF_ASC_NODE = 32.6514
ARG_OF_PERICENTER = 15.3652
MEAN_ANOMALY   = 344.8275

EPHEMERIS_TYPE = 0
CLASSIFICATION_TYPE = U
NORAD_CAT_ID   = 14208
ELEMENT_SET_NO = 999
REV_AT_EPOCH   = 32413
BSTAR          = .46906E-3
MEAN_MOTION_DOT = .17262E-3
MEAN_MOTION_DDOT = 0

CCSDS_OMM_VERS = 2.0
CREATION_DATE  = 
ORIGINATOR     = 

OBJECT_NAME    = COSMOS 1536
OBJECT_ID      = 1984-013A
CENTER_NAME    = EARTH
REF_FRAME      = TEME
TIME_SYSTEM    = UTC
MEAN_ELEMENT_THEORY = SGP/SGP4

EPOCH          = 2026-01-29T09:05:24.113184
MEAN_MOTION    = 15.23277205
ECCENTRICITY   = .001547
INCLINATION    = 82.5474
RA_OF_ASC_NODE = 146.8986
ARG_OF_PERICENTER = 63.5648
MEAN_ANOMALY   = 296.7174

EPHEMERIS_TYPE = 0
CLASSIFICATION_TYPE = U
NORAD_CAT_ID   = 14699
ELEMENT_SET_NO = 999
REV_AT_EPOCH   = 26663
BSTAR          = .447E-3
MEAN_MOTION_DOT = .10665E-3
MEAN_MOTION_DDOT = 0

CCSDS_OMM_VERS = 2.0
CREATION_DATE  = 
ORIGINATOR     = 

OBJECT_NAME    = SL-14 R/B
OBJECT_ID      = 1984-027B
CENTER_NAME    = EARTH
REF_FRAME      = TEME
TIME_SYSTEM    = UTC
MEAN_ELEMENT_THEORY = SGP/SGP4

EPOCH          = 2026-01-28T18:16:33.990528
MEAN_MOTION    = 14.85935641
ECCENTRICITY   = .00194808
INCLINATION    = 82.5418
RA_OF_ASC_NODE = 282.4664
ARG_OF_PERICENTER = 104.3500
MEAN_ANOMALY   = 255.9881

EPHEMERIS_TYPE = 0
CLASSIFICATION_TYPE = U
NORAD_CAT_ID   = 14820
ELEMENT_SET_NO = 999
REV_AT_EPOCH   = 24170
BSTAR          = .81811085E-4
MEAN_MOTION_DOT = .74E-5
MEAN_MOTION_DDOT = 0

CCSDS_OMM_VERS = 2.0
CREATION_DATE  = 
ORIGINATOR     = 

OBJECT_NAME    = SL-8 R/B
OBJECT_ID      = 1985-006B
CENTER_NAME    = EARTH
REF_FRAME      = TEME
TIME_SYSTEM    = UTC
MEAN_ELEMENT_THEORY = SGP/SGP4

EPOCH          = 2026-01-29T06:50:29.686848
MEAN_MOTION    = 14.37761281
ECCENTRICITY   = .0019741
INCLINATION    = 74.0477
RA_OF_ASC_NODE = 333.6532
ARG_OF_PERICENTER = 258.5517
MEAN_ANOMALY   = 211.3163

EPHEMERIS_TYPE = 0
CLASSIFICATION_TYPE = U
NORAD_CAT_ID   = 15483
ELEMENT_SET_NO = 999
REV_AT_EPOCH   = 14836
BSTAR          = .16206E-3
MEAN_MOTION_DOT = .462E-5
MEAN_MOTION_DDOT = 0

CCSDS_OMM_VERS = 2.0
CREATION_DATE  = 
ORIGINATOR     = 

OBJECT_NAME    = SL-12 R/B(2)
OBJECT_ID      = 1985-042D
CENTER_NAME    = EARTH
REF_FRAME      = TEME
TIME_SYSTEM    = UTC
MEAN_ELEMENT_THEORY = SGP/SGP4

EPOCH          = 2026-01-29T12:18:00.963360
MEAN_MOTION    = 14.21969883
ECCENTRICITY   = .0035567
INCLINATION    = 71.1080
RA_OF_ASC_NODE = 170.4955
ARG_OF_PERICENTER = 190.2899
MEAN_ANOMALY   = 236.3132

EPHEMERIS_TYPE = 0
CLASSIFICATION_TYPE = U
NORAD_CAT_ID   = 15772
ELEMENT_SET_NO = 999
REV_AT_EPOCH   = 10882
BSTAR          = .13968E-3
MEAN_MOTION_DOT = .263E-5
MEAN_MOTION_DDOT = 0

CCSDS_OMM_VERS = 2.0
CREATION_DATE  = 
ORIGINATOR     = 

OBJECT_NAME    = SL-14 R/B
OBJECT_ID      = 1985-069B
CENTER_NAME    = EARTH
REF_FRAME      = TEME
TIME_SYSTEM    = UTC
MEAN_ELEMENT_THEORY = SGP/SGP4

EPOCH          = 2026-01-29T11:58:24.026016
MEAN_MOTION    = 14.86386024
ECCENTRICITY   = .0017874
INCLINATION    = 82.5242
RA_OF_ASC_NODE = 61.7953
ARG_OF_PERICENTER = 326.3973
MEAN_ANOMALY   = 33.6109

EPHEMERIS_TYPE = 0
CLASSIFICATION_TYPE = U
NORAD_CAT_ID   = 15945
ELEMENT_SET_NO = 999
REV_AT_EPOCH   = 16701
BSTAR          = .81237E-4
MEAN_MOTION_DOT = .742E-5
MEAN_MOTION_DDOT = 0

CCSDS_OMM_VERS = 2.0
CREATION_DATE  = 
ORIGINATOR     = 

OBJECT_NAME    = SL-16 R/B
OBJECT_ID      = 1985-097B
CENTER_NAME    = EARTH
REF_FRAME      = TEME
TIME_SYSTEM    = UTC
MEAN_ELEMENT_THEORY = SGP/SGP4

EPOCH          = 2026-01-28T23:00:16.851168
MEAN_MOTION    = 14.16592087
ECCENTRICITY   = .00091264
INCLINATION    = 71.0003
RA_OF_ASC_NODE = 224.1955
ARG_OF_PERICENTER = 306.5016
MEAN_ANOMALY   = 162.5380

EPHEMERIS_TYPE = 0
CLASSIFICATION_TYPE = U
NORAD_CAT_ID   = 16182
ELEMENT_SET_NO = 999
REV_AT_EPOCH   = 8160
BSTAR          = .14700349E-3
MEAN_MOTION_DOT = .245E-5
MEAN_MOTION_DDOT = 0

CCSDS_OMM_VERS = 2.0
CREATION_DATE  = 
ORIGINATOR     = 

OBJECT_NAME    = SL-14 R/B
OBJECT_ID      = 1986-006B
CENTER_NAME    = EARTH
REF_FRAME      = TEME
TIME_SYSTEM    = UTC
MEAN_ELEMENT_THEORY = SGP/SGP4

EPOCH          = 2026-01-29T05:12:28.374912
MEAN_MOTION    = 14.86755259
ECCENTRICITY   = .0077779
INCLINATION    = 82.5282
RA_OF_ASC_NODE = 296.8862
ARG_OF_PERICENTER = 44.3858
MEAN_ANOMALY   = 316.3556

EPHEMERIS_TYPE = 0
CLASSIFICATION_TYPE = U
NORAD_CAT_ID   = 16496
ELEMENT_SET_NO = 999
REV_AT_EPOCH   = 14334
BSTAR          = .12521E-3
MEAN_MOTION_DOT = .1205E-4
MEAN_MOTION_DDOT = 0

CCSDS_OMM_VERS = 2.0
CREATION_DATE  = 
ORIGINATOR     = 

OBJECT_NAME    = COSMOS 1743
OBJECT_ID      = 1986-034A
CENTER_NAME    = EARTH
REF_FRAME      = TEME
TIME_SYSTEM    = UTC
MEAN_ELEMENT_THEORY = SGP/SGP4

EPOCH          = 2026-01-29T07:29:13.235136
MEAN_MOTION    = 15.55664761
ECCENTRICITY   = .0005437
INCLINATION    = 82.5350
RA_OF_ASC_NODE = 115.0605
ARG_OF_PERICENTER = 81.7018
MEAN_ANOMALY   = 278.4852

EPHEMERIS_TYPE = 0
CLASSIFICATION_TYPE = U
NORAD_CAT_ID   = 16719
ELEMENT_SET_NO = 999
REV_AT_EPOCH   = 17412
BSTAR          = .73025E-3
MEAN_MOTION_DOT = .50438E-3
MEAN_MOTION_DDOT = 0

