SL-3 R/B                
1 13403U 82079B   26029.48223715  .00007657  00000+0  31029-3 0  9990
2 13403  81.1442 239.3580 0024383 300.5086  59.3740 15.24241197371729
SL-14 R/B               
1 13553U 82092B   26029.47138139  .00000897  00000+0  97980-4 0  9993
2 13553  82.5690 178.0700 0021779  72.6612 352.2658 14.86619040323101
SL-3 R/B                
1 13819U 83010B   26029.46437867  .00020403  00000+0  42951-3 0  9990
2 13819  81.1021  50.2932 0017072 178.1528 181.9782 15.44988127351887
SL-3 R/B                
1 14208U 83075B   26029.51750873  .00017262  00000+0  46906-3 0  9998
2 14208  97.6122  32.6514 0022664  15.3652 344.8275 15.37374504324132
COSMOS 1536             
1 14699U 84013A   26029.37875131  .00010665  00000+0  44700-3 0  9994
2 14699  82.5474 146.8986 0015470  63.5648 296.7174 15.23277205266635
SL-14 R/B               
1 14820U 84027B   26028.76150452  .00000740  00000+0  81811-4 0  9997
2 14820  82.5418 282.4664 0019480 104.3500 255.9881 14.85935641241700
SL-8 R/B                
1 15483U 85006B   26029.28506582  .00000462  00000+0  16206-3 0  9994
2 15483  74.0477 333.6532 0019741 258.5517 211.3163 14.37761281148361
SL-12 R/B(2)            
1 15772U 85042D   26029.51251115  .00000263  00000+0  13968-3 0  9991
2 15772  71.1080 170.4955 0035567 190.2899 236.3132 14.21969883108826
SL-14 R/B               
1 15945U 85069B   26029.49888919  .00000742  00000+0  81237-4 0  9994
2 15945  82.5242  61.7953 0017874 326.3973  33.6109 14.86386024167019
SL-16 R/B               
1 16182U 85097B   26028.95852837  .00000245  00000+0  14700-3 0  9997
2 16182  71.0003 224.1955 0009126 306.5016 162.5380 14.16592087 81601
SL-14 R/B               
1 16496U 86006B   26029.21699508  .00001205  00000+0  12521-3 0  9996
2 16496  82.5282 296.8862 0077779  44.3858 316.3556 14.86755259143341
COSMOS 1743             
1 16719U 86034A   26029.31195874  .00050438  00000+0  73025-3 0  9991
2 16719  82.5350 115.0605 0005437  81.7018 278.4852 15.55664761174128
